[{"OBJECT_NAME":"STARLINK-30440","OBJECT_ID":"2023-147L","EPOCH":"2026-03-06T14:00:01.000224","MEAN_MOTION":15.14724353,"ECCENTRICITY":0.00018879,"INCLINATION":43.0006,"RA_OF_ASC_NODE":342.703,"ARG_OF_PERICENTER":281.7582,"MEAN_ANOMALY":68.1823,"EPHEMERIS_TYPE":0,"CLASSIFICATION_TYPE":"U","NORAD_CAT_ID":57923,"ELEMENT_SET_NO":999,"REV_AT_EPOCH":577,"BSTAR":0.10610724,"MEAN_MOTION_DOT":0.02210785,"MEAN_MOTION_DDOT":0},{"OBJECT_NAME":"STARLINK-30487","OBJECT_ID":"2023-147M","EPOCH":"2026-03-06T04:31:43.527936","MEAN_MOTION":15.02523719,"ECCENTRICITY":5.525e-5,"INCLINATION":43.0026,"RA_OF_ASC_NODE":344.8659,"ARG_OF_PERICENTER":286.1103,"MEAN_ANOMALY":73.9679,"EPHEMERIS_TYPE":0,"CLASSIFICATION_TYPE":"U","NORAD_CAT_ID":57924,"ELEMENT_SET_NO":999,"REV_AT_EPOCH":13609,"BSTAR":-0.00013348917,"MEAN_MOTION_DOT":-2.005e-5,"MEAN_MOTION_DDOT":0},{"OBJECT_NAME":"STARLINK-30452","OBJECT_ID":"2023-147N","EPOCH":"2026-03-06T14:00:01.000224","MEAN_MOTION":15.14028898,"ECCENTRICITY":0.00017904,"INCLINATION":43.0011,"RA_OF_ASC_NODE":342.6792,"ARG_OF_PERICENTER":270.6657,"MEAN_ANOMALY":90.2297,"EPHEMERIS_TYPE":0,"CLASSIFICATION_TYPE":"U","NORAD_CAT_ID":57925,"ELEMENT_SET_NO":999,"REV_AT_EPOCH":577,"BSTAR":0.10290174,"MEAN_MOTION_DOT":0.02091176,"MEAN_MOTION_DDOT":0},{"OBJECT_NAME":"STARLINK-30468","OBJECT_ID":"2023-147P","EPOCH":"2026-03-06T03:15:08.938368","MEAN_MOTION":15.02500364,"ECCENTRICITY":0.00015776,"INCLINATION":43.0076,"RA_OF_ASC_NODE":345.3446,"ARG_OF_PERICENTER":267.6144,"MEAN_ANOMALY":92.4518,"EPHEMERIS_TYPE":0,"CLASSIFICATION_TYPE":"U","NORAD_CAT_ID":57926,"ELEMENT_SET_NO":999,"REV_AT_EPOCH":13605,"BSTAR":0.0003858771,"MEAN_MOTION_DOT":5.008e-5,"MEAN_MOTION_DDOT":0},{"OBJECT_NAME":"STARLINK-30448","OBJECT_ID":"2023-147R","EPOCH":"2026-03-06T11:04:12.550368","MEAN_MOTION":15.02531593,"ECCENTRICITY":0.00011059,"INCLINATION":43.004,"RA_OF_ASC_NODE":343.4853,"ARG_OF_PERICENTER":272.3504,"MEAN_ANOMALY":87.7212,"EPHEMERIS_TYPE":0,"CLASSIFICATION_TYPE":"U","NORAD_CAT_ID":57928,"ELEMENT_SET_NO":999,"REV_AT_EPOCH":13610,"BSTAR":2.91811e-5,"MEAN_MOTION_DOT":1.91e-6,"MEAN_MOTION_DDOT":0},{"OBJECT_NAME":"STARLINK-30476","OBJECT_ID":"2023-147T","EPOCH":"2026-03-06T08:09:35.677728","MEAN_MOTION":15.36070527,"ECCENTRICITY":0.00191686,"INCLINATION":42.9987,"RA_OF_ASC_NODE":290.9927,"ARG_OF_PERICENTER":221.1489,"MEAN_ANOMALY":138.7921,"EPHEMERIS_TYPE":0,"CLASSIFICATION_TYPE":"U","NORAD_CAT_ID":57930,"ELEMENT_SET_NO":999,"REV_AT_EPOCH":13670,"BSTAR":0.0013981745,"MEAN_MOTION_DOT":0.00050545,"MEAN_MOTION_DDOT":0},{"OBJECT_NAME":"STARLINK-30488","OBJECT_ID":"2023-147U","EPOCH":"2026-03-06T03:00:46.460736","MEAN_MOTION":15.02531528,"ECCENTRICITY":8.927e-5,"INCLINATION":43.0037,"RA_OF_ASC_NODE":345.2657,"ARG_OF_PERICENTER":269.4915,"MEAN_ANOMALY":90.5826,"EPHEMERIS_TYPE":0,"CLASSIFICATION_TYPE":"U","NORAD_CAT_ID":57931,"ELEMENT_SET_NO":999,"REV_AT_EPOCH":13608,"BSTAR":-1.9542623e-5,"MEAN_MOTION_DOT":-4.67e-6,"MEAN_MOTION_DDOT":0},{"OBJECT_NAME":"STARLINK-30471","OBJECT_ID":"2023-147V","EPOCH":"2026-03-06T14:00:01.000224","MEAN_MOTION":15.18066415,"ECCENTRICITY":0.00022886,"INCLINATION":43.0007,"RA_OF_ASC_NODE":341.8085,"ARG_OF_PERICENTER":273.5808,"MEAN_ANOMALY":94.4485,"EPHEMERIS_TYPE":0,"CLASSIFICATION_TYPE":"U","NORAD_CAT_ID":57932,"ELEMENT_SET_NO":999,"REV_AT_EPOCH":578,"BSTAR":0.050020905,"MEAN_MOTION_DOT":0.01126399,"MEAN_MOTION_DDOT":0},{"OBJECT_NAME":"STARLINK-30461","OBJECT_ID":"2023-147W","EPOCH":"2026-03-06T14:00:01.000224","MEAN_MOTION":15.18967308,"ECCENTRICITY":0.00021869,"INCLINATION":42.9996,"RA_OF_ASC_NODE":342.118,"ARG_OF_PERICENTER":259.4125,"MEAN_ANOMALY":337.9443,"EPHEMERIS_TYPE":0,"CLASSIFICATION_TYPE":"U","NORAD_CAT_ID":57933,"ELEMENT_SET_NO":999,"REV_AT_EPOCH":577,"BSTAR":0.084444412,"MEAN_MOTION_DOT":0.01997432,"MEAN_MOTION_DDOT":0},{"OBJECT_NAME":"STARLINK-30712","OBJECT_ID":"2023-148A","EPOCH":"2026-03-06T14:00:01.000224","MEAN_MOTION":15.30920244,"ECCENTRICITY":0.00013687,"INCLINATION":53.1603,"RA_OF_ASC_NODE":38.6171,"ARG_OF_PERICENTER":42.4572,"MEAN_ANOMALY":122.1725,"EPHEMERIS_TYPE":0,"CLASSIFICATION_TYPE":"U","NORAD_CAT_ID":57935,"ELEMENT_SET_NO":999,"REV_AT_EPOCH":581,"BSTAR":-0.063574532,"MEAN_MOTION_DOT":-0.01738267,"MEAN_MOTION_DDOT":0},{"OBJECT_NAME":"STARLINK-30716","OBJECT_ID":"2023-148B","EPOCH":"2026-03-06T07:44:38.367456","MEAN_MOTION":15.30204827,"ECCENTRICITY":0.00013025,"INCLINATION":53.1606,"RA_OF_ASC_NODE":40.0667,"ARG_OF_PERICENTER":110.3832,"MEAN_ANOMALY":249.7309,"EPHEMERIS_TYPE":0,"CLASSIFICATION_TYPE":"U","NORAD_CAT_ID":57936,"ELEMENT_SET_NO":999,"REV_AT_EPOCH":13790,"BSTAR":7.8474261e-5,"MEAN_MOTION_DOT":1.966e-5,"MEAN_MOTION_DDOT":0},{"OBJECT_NAME":"STARLINK-30400","OBJECT_ID":"2023-148C","EPOCH":"2026-03-06T14:56:56.431968","MEAN_MOTION":15.30198139,"ECCENTRICITY":0.00014492,"INCLINATION":53.1622,"RA_OF_ASC_NODE":38.4356,"ARG_OF_PERICENTER":99.6606,"MEAN_ANOMALY":260.4558,"EPHEMERIS_TYPE":0,"CLASSIFICATION_TYPE":"U","NORAD_CAT_ID":57937,"ELEMENT_SET_NO":999,"REV_AT_EPOCH":13795,"BSTAR":2.4530783e-5,"MEAN_MOTION_DOT":3.67e-6,"MEAN_MOTION_DDOT":0},{"OBJECT_NAME":"STARLINK-30710","OBJECT_ID":"2023-148D","EPOCH":"2026-03-06T06:48:35.510112","MEAN_MOTION":15.30192818,"ECCENTRICITY":0.00012938,"INCLINATION":53.1623,"RA_OF_ASC_NODE":30.0411,"ARG_OF_PERICENTER":82.5248,"MEAN_ANOMALY":277.59,"EPHEMERIS_TYPE":0,"CLASSIFICATION_TYPE":"U","NORAD_CAT_ID":57938,"ELEMENT_SET_NO":999,"REV_AT_EPOCH":13803,"BSTAR":2.6928883e-5,"MEAN_MOTION_DOT":4.38e-6,"MEAN_MOTION_DDOT":0},{"OBJECT_NAME":"STARLINK-30714","OBJECT_ID":"2023-148E","EPOCH":"2026-03-06T07:53:46.334400","MEAN_MOTION":15.30188266,"ECCENTRICITY":0.00014494,"INCLINATION":53.1606,"RA_OF_ASC_NODE":40.0914,"ARG_OF_PERICENTER":85.9909,"MEAN_ANOMALY":274.1257,"EPHEMERIS_TYPE":0,"CLASSIFICATION_TYPE":"U","NORAD_CAT_ID":57939,"ELEMENT_SET_NO":999,"REV_AT_EPOCH":13790,"BSTAR":0.00020525511,"MEAN_MOTION_DOT":5.722e-5,"MEAN_MOTION_DDOT":0},{"OBJECT_NAME":"STARLINK-30711","OBJECT_ID":"2023-148F","EPOCH":"2026-03-06T04:41:06.194112","MEAN_MOTION":15.30188434,"ECCENTRICITY":0.00013544,"INCLINATION":53.1616,"RA_OF_ASC_NODE":40.6986,"ARG_OF_PERICENTER":110.3537,"MEAN_ANOMALY":249.7609,"EPHEMERIS_TYPE":0,"CLASSIFICATION_TYPE":"U","NORAD_CAT_ID":57940,"ELEMENT_SET_NO":999,"REV_AT_EPOCH":13788,"BSTAR":-4.509494e-6,"MEAN_MOTION_DOT":-4.93e-6,"MEAN_MOTION_DDOT":0},{"OBJECT_NAME":"STARLINK-30715","OBJECT_ID":"2023-148G","EPOCH":"2026-03-06T14:26:40.056864","MEAN_MOTION":15.30196466,"ECCENTRICITY":0.00011536,"INCLINATION":53.1621,"RA_OF_ASC_NODE":28.3304,"ARG_OF_PERICENTER":95.9734,"MEAN_ANOMALY":264.1398,"EPHEMERIS_TYPE":0,"CLASSIFICATION_TYPE":"U","NORAD_CAT_ID":57941,"ELEMENT_SET_NO":999,"REV_AT_EPOCH":13809,"BSTAR":1.8117923e-5,"MEAN_MOTION_DOT":1.77e-6,"MEAN_MOTION_DDOT":0}]
