STARLINK-30440          
1 57923U 23147L   26065.58334491  .02210785  00000+0  10611+0 0  9991
2 57923  43.0006 342.7030 0001887 281.7582  68.1823 15.14724353  5779
STARLINK-30487          
1 57924U 23147M   26065.18869824 -.00002005  00000+0 -13349-3 0  9990
2 57924  43.0026 344.8659 0000552 286.1103  73.9679 15.02523719136091
STARLINK-30452          
1 57925U 23147N   26065.58334491  .02091176  00000+0  10290+0 0  9997
2 57925  43.0011 342.6792 0001790 270.6657  90.2297 15.14028898  5776
STARLINK-30468          
1 57926U 23147P   26065.13552012  .00005008  00000+0  38588-3 0  9991
2 57926  43.0076 345.3446 0001577 267.6144  92.4518 15.02500364136050
STARLINK-30448          
1 57928U 23147R   26065.46125637  .00000191  00000+0  29181-4 0  9996
2 57928  43.0040 343.4853 0001105 272.3504  87.7212 15.02531593136106
STARLINK-30476          
1 57930U 23147T   26065.33999627  .00050545  00000+0  13982-2 0  9991
2 57930  42.9987 290.9927 0019168 221.1489 138.7921 15.36070527136709
STARLINK-30488          
1 57931U 23147U   26065.12553774 -.00000467  00000+0 -19543-4 0  9999
2 57931  43.0037 345.2657 0000892 269.4915  90.5826 15.02531528136081
STARLINK-30471          
1 57932U 23147V   26065.58334491  .01126399  00000+0  50021-1 0  9998
2 57932  43.0007 341.8085 0002288 273.5808  94.4485 15.18066415  5785
STARLINK-30461          
1 57933U 23147W   26065.58334491  .01997432  00000+0  84444-1 0  9999
2 57933  42.9996 342.1180 0002186 259.4125 337.9443 15.18967308  5772
STARLINK-30712          
1 57935U 23148A   26065.58334491 -.01738267  00000+0 -63575-1 0  9995
2 57935  53.1603  38.6171 0001368  42.4572 122.1725 15.30920244  5811
STARLINK-30716          
1 57936U 23148B   26065.32266629  .00001966  00000+0  78474-4 0  9998
2 57936  53.1606  40.0667 0001302 110.3832 249.7309 15.30204827137906
STARLINK-30400          
1 57937U 23148C   26065.62287537  .00000367  00000+0  24531-4 0  9992
2 57937  53.1622  38.4356 0001449  99.6606 260.4558 15.30198139137950
STARLINK-30710          
1 57938U 23148D   26065.28374433  .00000438  00000+0  26929-4 0  9999
2 57938  53.1623  30.0411 0001293  82.5248 277.5900 15.30192818138030
STARLINK-30714          
1 57939U 23148E   26065.32900850  .00005722  00000+0  20526-3 0  9990
2 57939  53.1606  40.0914 0001449  85.9909 274.1257 15.30188266137900
STARLINK-30711          
1 57940U 23148F   26065.19521058 -.00000493  00000+0 -45095-5 0  9998
2 57940  53.1616  40.6986 0001354 110.3537 249.7609 15.30188434137886
STARLINK-30715          
1 57941U 23148G   26065.60185251  .00000177  00000+0  18118-4 0  9998
2 57941  53.1621  28.3304 0001153  95.9734 264.1398 15.30196466138098
